{
  "type": "FeatureCollection",
  "features": [
    {
      "type": "Feature",
      "properties": {
        "norad_id": 35052,
        "name": "IRIDIUM 33 DEB",
        "group": "iridium-33-debris",
        "lat": 85.80031333331677,
        "lon": 82.21384402555091,
        "alt_km": 746.2513341552731,
        "timestamp": "2025-12-10T18:57:00.450571+00:00",
        "meta_object_name": "IRIDIUM 33 DEB",
        "meta_object_id": "1997-051NY",
        "meta_epoch": "2025-12-10T08:31:35.753088",
        "meta_mean_motion": 14.38488102,
        "meta_eccentricity": 0.0013698,
        "meta_inclination": 86.3312,
        "meta_ra_of_asc_node": 21.4986,
        "meta_arg_of_pericenter": 91.6977,
        "meta_mean_anomaly": 268.579,
        "meta_ephemeris_type": 0,
        "meta_classification_type": "U",
        "meta_norad_cat_id": 35052,
        "meta_element_set_no": 999,
        "meta_rev_at_epoch": 87241,
        "meta_bstar": 0.00028271,
        "meta_mean_motion_dot": 8.84e-06,
        "meta_mean_motion_ddot": 0,
        "tle_line1": "1 35052U 97051NY  25344.35527492  .00000884  00000+0  28271-3 0  9994",
        "tle_line2": "2 35052  86.3312  21.4986 0013698  91.6977 268.5790 14.38488102872414"
      },
      "geometry": {
        "type": "Point",
        "coordinates": [
          82.21384402555091,
          85.80031333331677
        ]
      }
    },
    {
      "type": "Feature",
      "properties": {
        "norad_id": 35080,
        "name": "IRIDIUM 33 DEB",
        "group": "iridium-33-debris",
        "lat": -68.43754735140634,
        "lon": 43.64212754318186,
        "alt_km": 629.8316025296226,
        "timestamp": "2025-12-10T18:57:00.450581+00:00",
        "meta_object_name": "IRIDIUM 33 DEB",
        "meta_object_id": "1997-051PF",
        "meta_epoch": "2025-12-10T11:10:44.628384",
        "meta_mean_motion": 14.85584115,
        "meta_eccentricity": 0.006122,
        "meta_inclination": 86.2065,
        "meta_ra_of_asc_node": 53.4628,
        "meta_arg_of_pericenter": 187.2858,
        "meta_mean_anomaly": 172.7483,
        "meta_ephemeris_type": 0,
        "meta_classification_type": "U",
        "meta_norad_cat_id": 35080,
        "meta_element_set_no": 999,
        "meta_rev_at_epoch": 69654,
        "meta_bstar": 0.011323,
        "meta_mean_motion_dot": 0.00102609,
        "meta_mean_motion_ddot": 0,
        "tle_line1": "1 35080U 97051PF  25344.46579431  .00102609  00000+0  11323-1 0  9993",
        "tle_line2": "2 35080  86.2065  53.4628 0061220 187.2858 172.7483 14.85584115696547"
      },
      "geometry": {
        "type": "Point",
        "coordinates": [
          43.64212754318186,
          -68.43754735140634
        ]
      }
    },
    {
      "type": "Feature",
      "properties": {
        "norad_id": 35297,
        "name": "IRIDIUM 33 DEB",
        "group": "iridium-33-debris",
        "lat": -51.62294593049438,
        "lon": 59.01639625209097,
        "alt_km": 760.1578050209973,
        "timestamp": "2025-12-10T18:57:00.450591+00:00",
        "meta_object_name": "IRIDIUM 33 DEB",
        "meta_object_id": "1997-051PM",
        "meta_epoch": "2025-12-06T00:31:29.302752",
        "meta_mean_motion": 14.45108459,
        "meta_eccentricity": 0.00170329,
        "meta_inclination": 86.3867,
        "meta_ra_of_asc_node": 65.6268,
        "meta_arg_of_pericenter": 161.2449,
        "meta_mean_anomaly": 198.9384,
        "meta_ephemeris_type": 0,
        "meta_classification_type": "U",
        "meta_norad_cat_id": 35297,
        "meta_element_set_no": 999,
        "meta_rev_at_epoch": 70329,
        "meta_bstar": 0.0012426888,
        "meta_mean_motion_dot": 4.371e-05,
        "meta_mean_motion_ddot": 0,
        "tle_line1": "1 35297U 97051PM  25340.02186693  .00004371  00000+0  12427-2 0  9999",
        "tle_line2": "2 35297  86.3867  65.6268 0017032 161.2449 198.9384 14.45108459703293"
      },
      "geometry": {
        "type": "Point",
        "coordinates": [
          59.01639625209097,
          -51.62294593049438
        ]
      }
    },
    {
      "type": "Feature",
      "properties": {
        "norad_id": 35299,
        "name": "IRIDIUM 33 DEB",
        "group": "iridium-33-debris",
        "lat": -86.04625120715477,
        "lon": -35.88464412401867,
        "alt_km": 803.3105461969044,
        "timestamp": "2025-12-10T18:57:00.450601+00:00",
        "meta_object_name": "IRIDIUM 33 DEB",
        "meta_object_id": "1997-051PP",
        "meta_epoch": "2025-12-10T11:19:59.280960",
        "meta_mean_motion": 14.40842438,
        "meta_eccentricity": 0.0058924,
        "meta_inclination": 86.2883,
        "meta_ra_of_asc_node": 34.1732,
        "meta_arg_of_pericenter": 109.5988,
        "meta_mean_anomaly": 316.372,
        "meta_ephemeris_type": 0,
        "meta_classification_type": "U",
        "meta_norad_cat_id": 35299,
        "meta_element_set_no": 999,
        "meta_rev_at_epoch": 86298,
        "meta_bstar": 0.0011317,
        "meta_mean_motion_dot": 3.72e-05,
        "meta_mean_motion_ddot": 0,
        "tle_line1": "1 35299U 97051PP  25344.47221390  .00003720  00000+0  11317-2 0  9992",
        "tle_line2": "2 35299  86.2883  34.1732 0058924 109.5988 316.3720 14.40842438862986"
      },
      "geometry": {
        "type": "Point",
        "coordinates": [
          -35.88464412401867,
          -86.04625120715477
        ]
      }
    },
    {
      "type": "Feature",
      "properties": {
        "norad_id": 35480,
        "name": "IRIDIUM 33 DEB",
        "group": "iridium-33-debris",
        "lat": -51.103294515193944,
        "lon": 21.228638443923977,
        "alt_km": 744.198853408463,
        "timestamp": "2025-12-10T18:57:00.450611+00:00",
        "meta_object_name": "IRIDIUM 33 DEB",
        "meta_object_id": "1997-051QA",
        "meta_epoch": "2025-12-09T19:59:43.135296",
        "meta_mean_motion": 14.49744632,
        "meta_eccentricity": 0.00159269,
        "meta_inclination": 86.357,
        "meta_ra_of_asc_node": 26.1722,
        "meta_arg_of_pericenter": 113.2937,
        "meta_mean_anomaly": 246.9945,
        "meta_ephemeris_type": 0,
        "meta_classification_type": "U",
        "meta_norad_cat_id": 35480,
        "meta_element_set_no": 999,
        "meta_rev_at_epoch": 86989,
        "meta_bstar": 0.0009193458,
        "meta_mean_motion_dot": 3.565e-05,
        "meta_mean_motion_ddot": 0,
        "tle_line1": "1 35480U 97051QA  25343.83313814  .00003565  00000+0  91935-3 0  9998",
        "tle_line2": "2 35480  86.3570  26.1722 0015926 113.2937 246.9945 14.49744632869893"
      },
      "geometry": {
        "type": "Point",
        "coordinates": [
          21.228638443923977,
          -51.103294515193944
        ]
      }
    },
    {
      "type": "Feature",
      "properties": {
        "norad_id": 35484,
        "name": "IRIDIUM 33 DEB",
        "group": "iridium-33-debris",
        "lat": 48.01281564110773,
        "lon": 169.60247458694727,
        "alt_km": 551.4053959609982,
        "timestamp": "2025-12-10T18:57:00.450621+00:00",
        "meta_object_name": "IRIDIUM 33 DEB",
        "meta_object_id": "1997-051QE",
        "meta_epoch": "2025-12-09T18:19:22.021248",
        "meta_mean_motion": 14.98336228,
        "meta_eccentricity": 0.00232979,
        "meta_inclination": 86.3609,
        "meta_ra_of_asc_node": 354.1372,
        "meta_arg_of_pericenter": 134.8315,
        "meta_mean_anomaly": 225.4815,
        "meta_ephemeris_type": 0,
        "meta_classification_type": "U",
        "meta_norad_cat_id": 35484,
        "meta_element_set_no": 999,
        "meta_rev_at_epoch": 61971,
        "meta_bstar": 0.0036943713,
        "meta_mean_motion_dot": 0.00044475,
        "meta_mean_motion_ddot": 0,
        "tle_line1": "1 35484U 97051QE  25343.76344932  .00044475  00000+0  36944-2 0  9992",
        "tle_line2": "2 35484  86.3609 354.1372 0023297 134.8315 225.4815 14.98336228619718"
      },
      "geometry": {
        "type": "Point",
        "coordinates": [
          169.60247458694727,
          48.01281564110773
        ]
      }
    },
    {
      "type": "Feature",
      "properties": {
        "norad_id": 35488,
        "name": "IRIDIUM 33 DEB",
        "group": "iridium-33-debris",
        "lat": -10.37751262860817,
        "lon": -58.8972579066389,
        "alt_km": 613.4778863913834,
        "timestamp": "2025-12-10T18:57:00.450631+00:00",
        "meta_object_name": "IRIDIUM 33 DEB",
        "meta_object_id": "1997-051QJ",
        "meta_epoch": "2025-12-10T07:39:38.232864",
        "meta_mean_motion": 14.82954928,
        "meta_eccentricity": 0.003015,
        "meta_inclination": 86.3246,
        "meta_ra_of_asc_node": 301.994,
        "meta_arg_of_pericenter": 50.6144,
        "meta_mean_anomaly": 309.7742,
        "meta_ephemeris_type": 0,
        "meta_classification_type": "U",
        "meta_norad_cat_id": 35488,
        "meta_element_set_no": 999,
        "meta_rev_at_epoch": 88230,
        "meta_bstar": 0.0023682,
        "meta_mean_motion_dot": 0.0001943,
        "meta_mean_motion_ddot": 0,
        "tle_line1": "1 35488U 97051QJ  25344.31919251  .00019430  00000+0  23682-2 0  9998",
        "tle_line2": "2 35488  86.3246 301.9940 0030150  50.6144 309.7742 14.82954928882309"
      },
      "geometry": {
        "type": "Point",
        "coordinates": [
          -58.8972579066389,
          -10.37751262860817
        ]
      }
    }
  ]
}